{"type": "FeatureCollection", "features": [ {"type": "Feature", "properties": {"norad_id": 36005, "name": "COSMOS 2251 DEB", "group": "cosmos-2251-debris", "lat": -38.52278301849733, "lon": -57.224441886436075, "alt_km": 701.4550000811869, "timestamp": "2025-12-04T09:47:37.916737+00:00", "meta": {"OBJECT_NAME": "COSMOS 2251 DEB", "OBJECT_ID": "1993-036AWX", "EPOCH": "2025-12-03T02:54:52.272576", "MEAN_MOTION": 14.47331723, "ECCENTRICITY": 0.00621511, "INCLINATION": 74.026, "RA_OF_ASC_NODE": 112.0007, "ARG_OF_PERICENTER": 251.2803, "MEAN_ANOMALY": 108.1604, "EPHEMERIS_TYPE": 0, "CLASSIFICATION_TYPE": "U", "NORAD_CAT_ID": 36005, "ELEMENT_SET_NO": 999, "REV_AT_EPOCH": 87445, "BSTAR": 0.00029551015, "MEAN_MOTION_DOT": 1.08e-05, "MEAN_MOTION_DDOT": 0}, "tle": {"line1": "1 36005U 93036AWX 25337.12143834  .00001080  00000+0  29551-3 0  9994", "line2": "2 36005  74.0260 112.0007 0062151 251.2803 108.1604 14.47331723874455"}}, "geometry": {"type": "Point", "coordinates": [-57.224441886436075, -38.52278301849733]}}, {"type": "Feature", "properties": {"norad_id": 36045, "name": "COSMOS 2251 DEB", "group": "cosmos-2251-debris", "lat": -32.57567009191866, "lon": 64.77367500633545, "alt_km": 688.9613221994441, "timestamp": "2025-12-04T09:47:37.916747+00:00", "meta": {"OBJECT_NAME": "COSMOS 2251 DEB", "OBJECT_ID": "1993-036AXG", "EPOCH": "2025-12-01T23:07:36.106176", "MEAN_MOTION": 14.69377741, "ECCENTRICITY": 0.00488719, "INCLINATION": 73.7639, "RA_OF_ASC_NODE": 80.3157, "ARG_OF_PERICENTER": 97.908, "MEAN_ANOMALY": 262.764, "EPHEMERIS_TYPE": 0, "CLASSIFICATION_TYPE": "U", "NORAD_CAT_ID": 36045, "ELEMENT_SET_NO": 999, "REV_AT_EPOCH": 8230, "BSTAR": 0.0029815468, "MEAN_MOTION_DOT": 0.0001797, "MEAN_MOTION_DDOT": 0}, "tle": {"line1": "1 36045U 93036AXG 25335.96361234  .00017970  00000+0  29815-2 0  9991", "line2": "2 36045  73.7639  80.3157 0048871  97.9080 262.7640 14.69377741 82309"}}, "geometry": {"type": "Point", "coordinates": [64.77367500633545, -32.57567009191866]}}, {"type": "Feature", "properties": {"norad_id": 36046, "name": "COSMOS 2251 DEB", "group": "cosmos-2251-debris", "lat": 17.042480627325332, "lon": 107.51244908562501, "alt_km": 670.4930671371467, "timestamp": "2025-12-04T09:47:37.916757+00:00", "meta": {"OBJECT_NAME": "COSMOS 2251 DEB", "OBJECT_ID": "1993-036AXH", "EPOCH": "2025-12-01T14:24:58.053024", "MEAN_MOTION": 14.65147038, "ECCENTRICITY": 0.00552553, "INCLINATION": 74.0167, "RA_OF_ASC_NODE": 297.9586, "ARG_OF_PERICENTER": 87.1353, "MEAN_ANOMALY": 32.6466, "EPHEMERIS_TYPE": 0, "CLASSIFICATION_TYPE": "U", "NORAD_CAT_ID": 36046, "ELEMENT_SET_NO": 999, "REV_AT_EPOCH": 63840, "BSTAR": 0.0006286755, "MEAN_MOTION_DOT": 3.426e-05, "MEAN_MOTION_DDOT": 0}, "tle": {"line1": "1 36046U 93036AXH 25335.60067191  .00003426  00000+0  62868-3 0  9995", "line2": "2 36046  74.0167 297.9586 0055255  87.1353  32.6466 14.65147038638408"}}, "geometry": {"type": "Point", "coordinates": [107.51244908562501, 17.042480627325332]}}, {"type": "Feature", "properties": {"norad_id": 36047, "name": "COSMOS 2251 DEB", "group": "cosmos-2251-debris", "lat": -71.59609680442492, "lon": -129.65948169025896, "alt_km": 590.4199115056599, "timestamp": "2025-12-04T09:47:37.916767+00:00", "meta": {"OBJECT_NAME": "COSMOS 2251 DEB", "OBJECT_ID": "1993-036AXJ", "EPOCH": "2025-12-03T18:10:50.756160", "MEAN_MOTION": 14.95364522, "ECCENTRICITY": 0.00078423, "INCLINATION": 74.0348, "RA_OF_ASC_NODE": 352.2907, "ARG_OF_PERICENTER": 18.0542, "MEAN_ANOMALY": 342.0919, "EPHEMERIS_TYPE": 0, "CLASSIFICATION_TYPE": "U", "NORAD_CAT_ID": 36047, "ELEMENT_SET_NO": 999, "REV_AT_EPOCH": 65805, "BSTAR": 0.0029851567, "MEAN_MOTION_DOT": 0.00033093, "MEAN_MOTION_DDOT": 0}, "tle": {"line1": "1 36047U 93036AXJ 25337.75753190  .00033093  00000+0  29852-2 0  9993", "line2": "2 36047  74.0348 352.2907 0007842  18.0542 342.0919 14.95364522658050"}}, "geometry": {"type": "Point", "coordinates": [-129.65948169025896, -71.59609680442492]}}, {"type": "Feature", "properties": {"norad_id": 36048, "name": "COSMOS 2251 DEB", "group": "cosmos-2251-debris", "lat": 53.26291431894961, "lon": 112.08742301467433, "alt_km": 768.8070623647945, "timestamp": "2025-12-04T09:47:37.916778+00:00", "meta": {"OBJECT_NAME": "COSMOS 2251 DEB", "OBJECT_ID": "1993-036AXK", "EPOCH": "2025-12-03T17:20:47.779872", "MEAN_MOTION": 14.37824674, "ECCENTRICITY": 0.00262269, "INCLINATION": 74.0561, "RA_OF_ASC_NODE": 315.8673, "ARG_OF_PERICENTER": 7.889, "MEAN_ANOMALY": 169.513, "EPHEMERIS_TYPE": 0, "CLASSIFICATION_TYPE": "U", "NORAD_CAT_ID": 36048, "ELEMENT_SET_NO": 999, "REV_AT_EPOCH": 85372, "BSTAR": 0.00041796322, "MEAN_MOTION_DOT": 1.239e-05, "MEAN_MOTION_DDOT": 0}, "tle": {"line1": "1 36048U 93036AXK 25337.72277523  .00001239  00000+0  41796-3 0  9991", "line2": "2 36048  74.0561 315.8673 0026226   7.8890 169.5130 14.37824674853725"}}, "geometry": {"type": "Point", "coordinates": [112.08742301467433, 53.26291431894961]}}, {"type": "Feature", "properties": {"norad_id": 36049, "name": "COSMOS 2251 DEB", "group": "cosmos-2251-debris", "lat": -41.66079819595323, "lon": -30.099278527782005, "alt_km": 685.1544238142214, "timestamp": "2025-12-04T09:47:37.916788+00:00", "meta": {"OBJECT_NAME": "COSMOS 2251 DEB", "OBJECT_ID": "1993-036AXL", "EPOCH": "2025-12-02T10:47:16.230624", "MEAN_MOTION": 14.61903141, "ECCENTRICITY": 0.00113733, "INCLINATION": 74.0292, "RA_OF_ASC_NODE": 138.8873, "ARG_OF_PERICENTER": 223.356, "MEAN_ANOMALY": 136.6713, "EPHEMERIS_TYPE": 0, "CLASSIFICATION_TYPE": "U", "NORAD_CAT_ID": 36049, "ELEMENT_SET_NO": 999, "REV_AT_EPOCH": 85214, "BSTAR": 0.0017572589, "MEAN_MOTION_DOT": 8.782e-05, "MEAN_MOTION_DDOT": 0}, "tle": {"line1": "1 36049U 93036AXL 25336.44949341  .00008782  00000+0  17573-2 0  9999", "line2": "2 36049  74.0292 138.8873 0011373 223.3560 136.6713 14.61903141852149"}}, "geometry": {"type": "Point", "coordinates": [-30.099278527782005, -41.66079819595323]}}, {"type": "Feature", "properties": {"norad_id": 36050, "name": "COSMOS 2251 DEB", "group": "cosmos-2251-debris", "lat": -27.422818921493864, "lon": 39.53349482781585, "alt_km": 562.8320531001673, "timestamp": "2025-12-04T09:47:37.916821+00:00", "meta": {"OBJECT_NAME": "COSMOS 2251 DEB", "OBJECT_ID": "1993-036AXM", "EPOCH": "2025-12-03T08:51:43.557696", "MEAN_MOTION": 15.00813844, "ECCENTRICITY": 0.00890805, "INCLINATION": 74.0318, "RA_OF_ASC_NODE": 213.1033, "ARG_OF_PERICENTER": 294.9563, "MEAN_ANOMALY": 64.2389, "EPHEMERIS_TYPE": 0, "CLASSIFICATION_TYPE": "U", "NORAD_CAT_ID": 36050, "ELEMENT_SET_NO": 999, "REV_AT_EPOCH": 66894, "BSTAR": 0.00068060745, "MEAN_MOTION_DOT": 9.378e-05, "MEAN_MOTION_DDOT": 0}, "tle": {"line1": "1 36050U 93036AXM 25337.36925414  .00009378  00000+0  68061-3 0  9999", "line2": "2 36050  74.0318 213.1033 0089080 294.9563  64.2389 15.00813844668944"}}, "geometry": {"type": "Point", "coordinates": [39.53349482781585, -27.422818921493864]}}, {"type": "Feature", "properties": {"norad_id": 36053, "name": "COSMOS 2251 DEB", "group": "cosmos-2251-debris", "lat": -9.675514725109773, "lon": 165.84460404316957, "alt_km": 722.1087105790166, "timestamp": "2025-12-04T09:47:37.916832+00:00", "meta": {"OBJECT_NAME": "COSMOS 2251 DEB", "OBJECT_ID": "1993-036AXQ", "EPOCH": "2025-12-01T06:02:04.873920", "MEAN_MOTION": 14.56926822, "ECCENTRICITY": 0.0033176, "INCLINATION": 73.8721, "RA_OF_ASC_NODE": 174.7239, "ARG_OF_PERICENTER": 127.7081, "MEAN_ANOMALY": 232.7098, "EPHEMERIS_TYPE": 0, "CLASSIFICATION_TYPE": "U", "NORAD_CAT_ID": 36053, "ELEMENT_SET_NO": 999, "REV_AT_EPOCH": 87277, "BSTAR": 0.0017117, "MEAN_MOTION_DOT": 7.72e-05, "MEAN_MOTION_DDOT": 0}, "tle": {"line1": "1 36053U 93036AXQ 25335.25144530  .00007720  00000+0  17117-2 0  9994", "line2": "2 36053  73.8721 174.7239 0033176 127.7081 232.7098 14.56926822872773"}}, "geometry": {"type": "Point", "coordinates": [165.84460404316957, -9.675514725109773]}}, {"type": "Feature", "properties": {"norad_id": 36058, "name": "COSMOS 2251 DEB", "group": "cosmos-2251-debris", "lat": 64.14699766203896, "lon": 85.58138500961036, "alt_km": 705.0015200997259, "timestamp": "2025-12-04T09:47:37.916842+00:00", "meta": {"OBJECT_NAME": "COSMOS 2251 DEB", "OBJECT_ID": "1993-036AXV", "EPOCH": "2025-12-02T21:15:38.245248", "MEAN_MOTION": 14.58601869, "ECCENTRICITY": 0.00452241, "INCLINATION": 74.0244, "RA_OF_ASC_NODE": 52.2381, "ARG_OF_PERICENTER": 188.8228, "MEAN_ANOMALY": 171.2148, "EPHEMERIS_TYPE": 0, "CLASSIFICATION_TYPE": "U", "NORAD_CAT_ID": 36058, "ELEMENT_SET_NO": 999, "REV_AT_EPOCH": 65967, "BSTAR": 0.00090546257, "MEAN_MOTION_DOT": 4.247e-05, "MEAN_MOTION_DDOT": 0}, "tle": {"line1": "1 36058U 93036AXV 25336.88585932  .00004247  00000+0  90546-3 0  9993", "line2": "2 36058  74.0244  52.2381 0045224 188.8228 171.2148 14.58601869659675"}}, "geometry": {"type": "Point", "coordinates": [85.58138500961036, 64.14699766203896]}}, {"type": "Feature", "properties": {"norad_id": 36060, "name": "COSMOS 2251 DEB", "group": "cosmos-2251-debris", "lat": 62.695970931271845, "lon": 36.32208059191254, "alt_km": 751.5810726684549, "timestamp": "2025-12-04T09:47:37.916852+00:00", "meta": {"OBJECT_NAME": "COSMOS 2251 DEB", "OBJECT_ID": "1993-036AXX", "EPOCH": "2025-12-03T11:37:45.034464", "MEAN_MOTION": 14.41963836, "ECCENTRICITY": 0.00149674, "INCLINATION": 74.0291, "RA_OF_ASC_NODE": 251.7281, "ARG_OF_PERICENTER": 349.8099, "MEAN_ANOMALY": 10.2751, "EPHEMERIS_TYPE": 0, "CLASSIFICATION_TYPE": "U", "NORAD_CAT_ID": 36060, "ELEMENT_SET_NO": 999, "REV_AT_EPOCH": 84876, "BSTAR": 0.00052284347, "MEAN_MOTION_DOT": 1.69e-05, "MEAN_MOTION_DDOT": 0}, "tle": {"line1": "1 36060U 93036AXX 25337.48454901  .00001690  00000+0  52284-3 0  9990", "line2": "2 36060  74.0291 251.7281 0014967 349.8099  10.2751 14.41963836848769"}}, "geometry": {"type": "Point", "coordinates": [36.32208059191254, 62.695970931271845]}}]}